STARLINK-36475          
1 67350U 26003S   26019.25002315 -.01553716  00000+0 -61183-2 0  9998
2 67350  42.9985 153.1063 0001579 274.3909 124.8482 15.88487985  2717
STARLINK-36478          
1 67351U 26003T   26019.25002315 -.01565720  00000+0 -61631-2 0  9995
2 67351  42.9985 153.1015 0001563 273.4981 127.6922 15.88516805  2712
STARLINK-36479          
1 67352U 26003U   26019.25002315 -.01571081  00000+0 -61800-2 0  9991
2 67352  42.9986 153.0963 0001578 272.0476 131.1722 15.88539152  2724
STARLINK-36474          
1 67353U 26003V   26019.25002315 -.01583628  00000+0 -62320-2 0  9990
2 67353  42.9984 153.0907 0001384 266.9450 138.6687 15.88555224  2720
STARLINK-36448          
1 67354U 26003W   26019.25002315 -.01605835  00000+0 -63139-2 0  9995
2 67354  42.9986 153.0735 0001648 268.4084 143.8764 15.88607747  2727
STARLINK-36477          
1 67355U 26003X   26019.25002315 -.01585140  00000+0 -62376-2 0  9994
2 67355  42.9986 153.0840 0001608 274.2972 133.9218 15.88555912  2711
STARLINK-36429          
1 67356U 26003Y   26019.25002315 -.01602084  00000+0 -63045-2 0  9996
2 67356  42.9988 153.0787 0001587 275.3519 134.9423 15.88585109  2719
STARLINK-36456          
1 67357U 26003Z   26019.25002315 -.01608841  00000+0 -63253-2 0  9995
2 67357  42.9985 153.0673 0001567 273.7167 140.9537 15.88615199  2727
STARLINK-36466          
1 67358U 26003AA  26019.25002315 -.01624085  00000+0 -63905-2 0  9998
2 67358  42.9987 153.0606 0001530 273.4188 143.8355 15.88626104  2724
STARLINK-36499          
1 67359U 26003AB  26019.25002315 -.01626701  00000+0 -63956-2 0  9992
2 67359  42.9986 153.0552 0001636 271.8810 147.4693 15.88645294  2721
STARLINK-36469          
1 67360U 26003AC  26019.25002315 -.01630725  00000+0 -64123-2 0  9992
2 67360  42.9987 153.0489 0001667 271.6496 150.2437 15.88649406  2722
STARLINK-35306          
1 67361U 26003AD  26019.25002315 -.01648725  00000+0 -64834-2 0  9991
2 67361  42.9983 153.0435 0001695 272.4499 151.4673 15.88679655  2660
