CCSDS_OMM_VERS = 2.0
CREATION_DATE  = 
ORIGINATOR     = 

OBJECT_NAME    = STARLINK-36475
OBJECT_ID      = 2026-003S
CENTER_NAME    = EARTH
REF_FRAME      = TEME
TIME_SYSTEM    = UTC
MEAN_ELEMENT_THEORY = SGP/SGP4

EPOCH          = 2026-01-19T06:00:02.000160
MEAN_MOTION    = 15.88487985
ECCENTRICITY   = .00015791
INCLINATION    = 42.9985
RA_OF_ASC_NODE = 153.1063
ARG_OF_PERICENTER = 274.3909
MEAN_ANOMALY   = 124.8482

EPHEMERIS_TYPE = 0
CLASSIFICATION_TYPE = U
NORAD_CAT_ID   = 67350
ELEMENT_SET_NO = 999
REV_AT_EPOCH   = 271
BSTAR          = -.61182664E-2
MEAN_MOTION_DOT = -.1553716E-1
MEAN_MOTION_DDOT = 0

CCSDS_OMM_VERS = 2.0
CREATION_DATE  = 
ORIGINATOR     = 

OBJECT_NAME    = STARLINK-36478
OBJECT_ID      = 2026-003T
CENTER_NAME    = EARTH
REF_FRAME      = TEME
TIME_SYSTEM    = UTC
MEAN_ELEMENT_THEORY = SGP/SGP4

EPOCH          = 2026-01-19T06:00:02.000160
MEAN_MOTION    = 15.88516805
ECCENTRICITY   = .00015633
INCLINATION    = 42.9985
RA_OF_ASC_NODE = 153.1015
ARG_OF_PERICENTER = 273.4981
MEAN_ANOMALY   = 127.6922

EPHEMERIS_TYPE = 0
CLASSIFICATION_TYPE = U
NORAD_CAT_ID   = 67351
ELEMENT_SET_NO = 999
REV_AT_EPOCH   = 271
BSTAR          = -.61630888E-2
MEAN_MOTION_DOT = -.156572E-1
MEAN_MOTION_DDOT = 0

CCSDS_OMM_VERS = 2.0
CREATION_DATE  = 
ORIGINATOR     = 

OBJECT_NAME    = STARLINK-36479
OBJECT_ID      = 2026-003U
CENTER_NAME    = EARTH
REF_FRAME      = TEME
TIME_SYSTEM    = UTC
MEAN_ELEMENT_THEORY = SGP/SGP4

EPOCH          = 2026-01-19T06:00:02.000160
MEAN_MOTION    = 15.88539152
ECCENTRICITY   = .00015788
INCLINATION    = 42.9986
RA_OF_ASC_NODE = 153.0963
ARG_OF_PERICENTER = 272.0476
MEAN_ANOMALY   = 131.1722

EPHEMERIS_TYPE = 0
CLASSIFICATION_TYPE = U
NORAD_CAT_ID   = 67352
ELEMENT_SET_NO = 999
REV_AT_EPOCH   = 272
BSTAR          = -.6180036E-2
MEAN_MOTION_DOT = -.1571081E-1
MEAN_MOTION_DDOT = 0

CCSDS_OMM_VERS = 2.0
CREATION_DATE  = 
ORIGINATOR     = 

OBJECT_NAME    = STARLINK-36474
OBJECT_ID      = 2026-003V
CENTER_NAME    = EARTH
REF_FRAME      = TEME
TIME_SYSTEM    = UTC
MEAN_ELEMENT_THEORY = SGP/SGP4

EPOCH          = 2026-01-19T06:00:02.000160
MEAN_MOTION    = 15.88555224
ECCENTRICITY   = .00013842
INCLINATION    = 42.9984
RA_OF_ASC_NODE = 153.0907
ARG_OF_PERICENTER = 266.9450
MEAN_ANOMALY   = 138.6687

EPHEMERIS_TYPE = 0
CLASSIFICATION_TYPE = U
NORAD_CAT_ID   = 67353
ELEMENT_SET_NO = 999
REV_AT_EPOCH   = 272
BSTAR          = -.62319661E-2
MEAN_MOTION_DOT = -.1583628E-1
MEAN_MOTION_DDOT = 0

CCSDS_OMM_VERS = 2.0
CREATION_DATE  = 
ORIGINATOR     = 

OBJECT_NAME    = STARLINK-36448
OBJECT_ID      = 2026-003W
CENTER_NAME    = EARTH
REF_FRAME      = TEME
TIME_SYSTEM    = UTC
MEAN_ELEMENT_THEORY = SGP/SGP4

EPOCH          = 2026-01-19T06:00:02.000160
MEAN_MOTION    = 15.88607747
ECCENTRICITY   = .00016485
INCLINATION    = 42.9986
RA_OF_ASC_NODE = 153.0735
ARG_OF_PERICENTER = 268.4084
MEAN_ANOMALY   = 143.8764

EPHEMERIS_TYPE = 0
CLASSIFICATION_TYPE = U
NORAD_CAT_ID   = 67354
ELEMENT_SET_NO = 999
REV_AT_EPOCH   = 272
BSTAR          = -.63138646E-2
MEAN_MOTION_DOT = -.1605835E-1
MEAN_MOTION_DDOT = 0

CCSDS_OMM_VERS = 2.0
CREATION_DATE  = 
ORIGINATOR     = 

OBJECT_NAME    = STARLINK-36477
OBJECT_ID      = 2026-003X
CENTER_NAME    = EARTH
REF_FRAME      = TEME
TIME_SYSTEM    = UTC
MEAN_ELEMENT_THEORY = SGP/SGP4

EPOCH          = 2026-01-19T06:00:02.000160
MEAN_MOTION    = 15.88555912
ECCENTRICITY   = .00016082
INCLINATION    = 42.9986
RA_OF_ASC_NODE = 153.0840
ARG_OF_PERICENTER = 274.2972
MEAN_ANOMALY   = 133.9218

EPHEMERIS_TYPE = 0
CLASSIFICATION_TYPE = U
NORAD_CAT_ID   = 67355
ELEMENT_SET_NO = 999
REV_AT_EPOCH   = 271
BSTAR          = -.62376489E-2
MEAN_MOTION_DOT = -.158514E-1
MEAN_MOTION_DDOT = 0

CCSDS_OMM_VERS = 2.0
CREATION_DATE  = 
ORIGINATOR     = 

OBJECT_NAME    = STARLINK-36429
OBJECT_ID      = 2026-003Y
CENTER_NAME    = EARTH
REF_FRAME      = TEME
TIME_SYSTEM    = UTC
MEAN_ELEMENT_THEORY = SGP/SGP4

EPOCH          = 2026-01-19T06:00:02.000160
MEAN_MOTION    = 15.88585109
ECCENTRICITY   = .00015871
INCLINATION    = 42.9988
RA_OF_ASC_NODE = 153.0787
ARG_OF_PERICENTER = 275.3519
MEAN_ANOMALY   = 134.9423

EPHEMERIS_TYPE = 0
CLASSIFICATION_TYPE = U
NORAD_CAT_ID   = 67356
ELEMENT_SET_NO = 999
REV_AT_EPOCH   = 271
BSTAR          = -.63045238E-2
MEAN_MOTION_DOT = -.1602084E-1
MEAN_MOTION_DDOT = 0

CCSDS_OMM_VERS = 2.0
CREATION_DATE  = 
ORIGINATOR     = 

OBJECT_NAME    = STARLINK-36456
OBJECT_ID      = 2026-003Z
CENTER_NAME    = EARTH
REF_FRAME      = TEME
TIME_SYSTEM    = UTC
MEAN_ELEMENT_THEORY = SGP/SGP4

EPOCH          = 2026-01-19T06:00:02.000160
MEAN_MOTION    = 15.88615199
ECCENTRICITY   = .00015675
INCLINATION    = 42.9985
RA_OF_ASC_NODE = 153.0673
ARG_OF_PERICENTER = 273.7167
MEAN_ANOMALY   = 140.9537

EPHEMERIS_TYPE = 0
CLASSIFICATION_TYPE = U
NORAD_CAT_ID   = 67357
ELEMENT_SET_NO = 999
REV_AT_EPOCH   = 272
BSTAR          = -.63253143E-2
MEAN_MOTION_DOT = -.1608841E-1
MEAN_MOTION_DDOT = 0

CCSDS_OMM_VERS = 2.0
CREATION_DATE  = 
ORIGINATOR     = 

OBJECT_NAME    = STARLINK-36466
OBJECT_ID      = 2026-003AA
CENTER_NAME    = EARTH
REF_FRAME      = TEME
TIME_SYSTEM    = UTC
MEAN_ELEMENT_THEORY = SGP/SGP4

EPOCH          = 2026-01-19T06:00:02.000160
MEAN_MOTION    = 15.88626104
ECCENTRICITY   = .00015309
INCLINATION    = 42.9987
RA_OF_ASC_NODE = 153.0606
ARG_OF_PERICENTER = 273.4188
MEAN_ANOMALY   = 143.8355

EPHEMERIS_TYPE = 0
CLASSIFICATION_TYPE = U
NORAD_CAT_ID   = 67358
ELEMENT_SET_NO = 999
REV_AT_EPOCH   = 272
BSTAR          = -.63905339E-2
MEAN_MOTION_DOT = -.1624085E-1
MEAN_MOTION_DDOT = 0

CCSDS_OMM_VERS = 2.0
CREATION_DATE  = 
ORIGINATOR     = 

OBJECT_NAME    = STARLINK-36499
OBJECT_ID      = 2026-003AB
CENTER_NAME    = EARTH
REF_FRAME      = TEME
TIME_SYSTEM    = UTC
MEAN_ELEMENT_THEORY = SGP/SGP4

EPOCH          = 2026-01-19T06:00:02.000160
MEAN_MOTION    = 15.88645294
ECCENTRICITY   = .00016361
INCLINATION    = 42.9986
RA_OF_ASC_NODE = 153.0552
ARG_OF_PERICENTER = 271.8810
MEAN_ANOMALY   = 147.4693

EPHEMERIS_TYPE = 0
CLASSIFICATION_TYPE = U
NORAD_CAT_ID   = 67359
ELEMENT_SET_NO = 999
REV_AT_EPOCH   = 272
BSTAR          = -.63956344E-2
MEAN_MOTION_DOT = -.1626701E-1
MEAN_MOTION_DDOT = 0

CCSDS_OMM_VERS = 2.0
CREATION_DATE  = 
ORIGINATOR     = 

OBJECT_NAME    = STARLINK-36469
OBJECT_ID      = 2026-003AC
CENTER_NAME    = EARTH
REF_FRAME      = TEME
TIME_SYSTEM    = UTC
MEAN_ELEMENT_THEORY = SGP/SGP4

EPOCH          = 2026-01-19T06:00:02.000160
MEAN_MOTION    = 15.88649406
ECCENTRICITY   = .00016677
INCLINATION    = 42.9987
RA_OF_ASC_NODE = 153.0489
ARG_OF_PERICENTER = 271.6496
MEAN_ANOMALY   = 150.2437

EPHEMERIS_TYPE = 0
CLASSIFICATION_TYPE = U
NORAD_CAT_ID   = 67360
ELEMENT_SET_NO = 999
REV_AT_EPOCH   = 272
BSTAR          = -.64122858E-2
MEAN_MOTION_DOT = -.1630725E-1
MEAN_MOTION_DDOT = 0

CCSDS_OMM_VERS = 2.0
CREATION_DATE  = 
ORIGINATOR     = 

OBJECT_NAME    = STARLINK-35306
OBJECT_ID      = 2026-003AD
CENTER_NAME    = EARTH
REF_FRAME      = TEME
TIME_SYSTEM    = UTC
MEAN_ELEMENT_THEORY = SGP/SGP4

EPOCH          = 2026-01-19T06:00:02.000160
MEAN_MOTION    = 15.88679655
ECCENTRICITY   = .00016959
INCLINATION    = 42.9983
RA_OF_ASC_NODE = 153.0435
ARG_OF_PERICENTER = 272.4499
MEAN_ANOMALY   = 151.4673

EPHEMERIS_TYPE = 0
CLASSIFICATION_TYPE = U
NORAD_CAT_ID   = 67361
ELEMENT_SET_NO = 999
REV_AT_EPOCH   = 266
BSTAR          = -.648341E-2
MEAN_MOTION_DOT = -.1648725E-1
MEAN_MOTION_DDOT = 0

